{
  "links" : {
    "next" : "https://api.nasa.gov/neo/rest/v1/feed?start_date=2011-06-23&end_date=2011-06-23&detailed=true&api_key=t0TVs3DtDT2H8Oy2Zy8m2eVrNsAVKAexjcZXUckd",
    "prev" : "https://api.nasa.gov/neo/rest/v1/feed?start_date=2011-06-21&end_date=2011-06-21&detailed=true&api_key=t0TVs3DtDT2H8Oy2Zy8m2eVrNsAVKAexjcZXUckd",
    "self" : "https://api.nasa.gov/neo/rest/v1/feed?start_date=2011-06-22&end_date=2011-06-22&detailed=true&api_key=t0TVs3DtDT2H8Oy2Zy8m2eVrNsAVKAexjcZXUckd"
  },
  "element_count" : 10,
  "near_earth_objects" : {
    "2011-06-22" : [ {
      "links" : {
        "self" : "https://api.nasa.gov/neo/rest/v1/neo/3402198?api_key=t0TVs3DtDT2H8Oy2Zy8m2eVrNsAVKAexjcZXUckd"
      },
      "neo_reference_id" : "3402198",
      "name" : "(2008 CY21)",
      "nasa_jpl_url" : "http://ssd.jpl.nasa.gov/sbdb.cgi?sstr=3402198",
      "absolute_magnitude_h" : 24.6,
      "estimated_diameter" : {
        "kilometers" : {
          "estimated_diameter_min" : 0.0319561887,
          "estimated_diameter_max" : 0.0714562102
        },
        "meters" : {
          "estimated_diameter_min" : 31.9561886721,
          "estimated_diameter_max" : 71.4562101727
        },
        "miles" : {
          "estimated_diameter_min" : 0.0198566489,
          "estimated_diameter_max" : 0.0444008168
        },
        "feet" : {
          "estimated_diameter_min" : 104.8431420431,
          "estimated_diameter_max" : 234.436392583
        }
      },
      "is_potentially_hazardous_asteroid" : false,
      "close_approach_data" : [ {
        "close_approach_date" : "2011-06-22",
        "epoch_date_close_approach" : 1308726000000,
        "relative_velocity" : {
          "kilometers_per_second" : "10.5759034323",
          "kilometers_per_hour" : "38073.2523561889",
          "miles_per_hour" : "23657.2383876553"
        },
        "miss_distance" : {
          "astronomical" : "0.1679506623",
          "lunar" : "65.3328094482",
          "kilometers" : "25125062",
          "miles" : "15611989"
        },
        "orbiting_body" : "Earth"
      } ],
      "orbital_data" : {
        "orbit_id" : "10",
        "orbit_determination_date" : "2017-04-06 09:04:28",
        "orbit_uncertainty" : "7",
        "minimum_orbit_intersection" : ".0473935",
        "jupiter_tisserand_invariant" : "6.194",
        "epoch_osculation" : "2458000.5",
        "eccentricity" : ".2481080633047173",
        "semi_major_axis" : ".968545843663848",
        "inclination" : "10.68910521047219",
        "ascending_node_longitude" : "322.8530898965628",
        "orbital_period" : "348.1598603846579",
        "perihelion_distance" : ".7282418101705772",
        "perihelion_argument" : "53.90129790243336",
        "aphelion_distance" : "1.208849877157119",
        "perihelion_time" : "2457894.749417406507",
        "mean_anomaly" : "109.3469238286007",
        "mean_motion" : "1.034007767587742",
        "equinox" : "J2000"
      }
    }, {
      "links" : {
        "self" : "https://api.nasa.gov/neo/rest/v1/neo/3535791?api_key=t0TVs3DtDT2H8Oy2Zy8m2eVrNsAVKAexjcZXUckd"
      },
      "neo_reference_id" : "3535791",
      "name" : "(2010 NB)",
      "nasa_jpl_url" : "http://ssd.jpl.nasa.gov/sbdb.cgi?sstr=3535791",
      "absolute_magnitude_h" : 23.0,
      "estimated_diameter" : {
        "kilometers" : {
          "estimated_diameter_min" : 0.0667659413,
          "estimated_diameter_max" : 0.1492931834
        },
        "meters" : {
          "estimated_diameter_min" : 66.7659413495,
          "estimated_diameter_max" : 149.2931834393
        },
        "miles" : {
          "estimated_diameter_min" : 0.0414864197,
          "estimated_diameter_max" : 0.0927664547
        },
        "feet" : {
          "estimated_diameter_min" : 219.0483710172,
          "estimated_diameter_max" : 489.807047955
        }
      },
      "is_potentially_hazardous_asteroid" : false,
      "close_approach_data" : [ {
        "close_approach_date" : "2011-06-22",
        "epoch_date_close_approach" : 1308726000000,
        "relative_velocity" : {
          "kilometers_per_second" : "11.1430772569",
          "kilometers_per_hour" : "40115.0781249908",
          "miles_per_hour" : "24925.9495160533"
        },
        "miss_distance" : {
          "astronomical" : "0.2756142416",
          "lunar" : "107.2139358521",
          "kilometers" : "41231304",
          "miles" : "25619944"
        },
        "orbiting_body" : "Earth"
      } ],
      "orbital_data" : {
        "orbit_id" : "11",
        "orbit_determination_date" : "2017-04-06 08:57:09",
        "orbit_uncertainty" : "8",
        "minimum_orbit_intersection" : ".0461264",
        "jupiter_tisserand_invariant" : "5.822",
        "epoch_osculation" : "2455381.5",
        "eccentricity" : ".3257956101144317",
        "semi_major_axis" : "1.032810883042577",
        "inclination" : "21.43464517953973",
        "ascending_node_longitude" : "271.8378636022945",
        "orbital_period" : "383.380160826337",
        "perihelion_distance" : ".6963256312688957",
        "perihelion_argument" : "116.5870767087428",
        "aphelion_distance" : "1.369296134816258",
        "perihelion_time" : "2455454.327483266472",
        "mean_anomaly" : "291.6138479377234",
        "mean_motion" : ".9390157258634785",
        "equinox" : "J2000"
      }
    }, {
      "links" : {
        "self" : "https://api.nasa.gov/neo/rest/v1/neo/3773653?api_key=t0TVs3DtDT2H8Oy2Zy8m2eVrNsAVKAexjcZXUckd"
      },
      "neo_reference_id" : "3773653",
      "name" : "(2017 FL128)",
      "nasa_jpl_url" : "http://ssd.jpl.nasa.gov/sbdb.cgi?sstr=3773653",
      "absolute_magnitude_h" : 22.204,
      "estimated_diameter" : {
        "kilometers" : {
          "estimated_diameter_min" : 0.0963285397,
          "estimated_diameter_max" : 0.2153971629
        },
        "meters" : {
          "estimated_diameter_min" : 96.3285396982,
          "estimated_diameter_max" : 215.3971629384
        },
        "miles" : {
          "estimated_diameter_min" : 0.059855761,
          "estimated_diameter_max" : 0.1338415505
        },
        "feet" : {
          "estimated_diameter_min" : 316.0385261833,
          "estimated_diameter_max" : 706.6836280547
        }
      },
      "is_potentially_hazardous_asteroid" : false,
      "close_approach_data" : [ {
        "close_approach_date" : "2011-06-22",
        "epoch_date_close_approach" : 1308726000000,
        "relative_velocity" : {
          "kilometers_per_second" : "10.5242747041",
          "kilometers_per_hour" : "37887.388934603",
          "miles_per_hour" : "23541.7500855038"
        },
        "miss_distance" : {
          "astronomical" : "0.3162374066",
          "lunar" : "123.0163574219",
          "kilometers" : "47308444",
          "miles" : "29396104"
        },
        "orbiting_body" : "Earth"
      } ],
      "orbital_data" : {
        "orbit_id" : "7",
        "orbit_determination_date" : "2017-05-22 06:19:16",
        "orbit_uncertainty" : "3",
        "minimum_orbit_intersection" : ".108564",
        "jupiter_tisserand_invariant" : "6.466",
        "epoch_osculation" : "2458000.5",
        "eccentricity" : ".3175085943356674",
        "semi_major_axis" : ".9111543560895662",
        "inclination" : "17.90074249259128",
        "ascending_node_longitude" : "8.98802420261806",
        "orbital_period" : "317.6774299570085",
        "perihelion_distance" : ".6218550172647479",
        "perihelion_argument" : "28.41397553474924",
        "aphelion_distance" : "1.200453694914384",
        "perihelion_time" : "2458037.556864150943",
        "mean_anomaly" : "318.0062357714711",
        "mean_motion" : "1.133224982488429",
        "equinox" : "J2000"
      }
    } ]
  }
}